1 29155U 06018A   11263.33332147 -.00000256  00000-0  10000-3 0  7509
2 29155 000.1080 077.4200 0003616 035.3321 291.2342 01.00265213 19537